[{"OBJECT_NAME":"STARLINK-36156","OBJECT_ID":"2025-293D","EPOCH":"2026-03-09T11:40:19.435584","MEAN_MOTION":14.9835049,"ECCENTRICITY":0.00040142,"INCLINATION":70,"RA_OF_ASC_NODE":95.1201,"ARG_OF_PERICENTER":266.14,"MEAN_ANOMALY":93.93,"EPHEMERIS_TYPE":0,"CLASSIFICATION_TYPE":"U","NORAD_CAT_ID":67006,"ELEMENT_SET_NO":999,"REV_AT_EPOCH":1485,"BSTAR":0.00030061031,"MEAN_MOTION_DOT":3.498e-5,"MEAN_MOTION_DDOT":0},{"OBJECT_NAME":"CZ-6A DEB","OBJECT_ID":"2022-151SB","EPOCH":"2026-03-09T22:09:26.196768","MEAN_MOTION":14.85244417,"ECCENTRICITY":0.00728534,"INCLINATION":99.1392,"RA_OF_ASC_NODE":215.607,"ARG_OF_PERICENTER":235.4544,"MEAN_ANOMALY":123.9777,"EPHEMERIS_TYPE":0,"CLASSIFICATION_TYPE":"U","NORAD_CAT_ID":54938,"ELEMENT_SET_NO":999,"REV_AT_EPOCH":17622,"BSTAR":0.0039580306,"MEAN_MOTION_DOT":0.00035713,"MEAN_MOTION_DDOT":0}]
